CUTE-1 (CO-55)          
1 27844U 03031E   20182.02515133  .00000033  00000-0  34605-4 0  9993
2 27844  98.6809 189.5703 0010376  26.0974 334.0724 14.22244369881923
CUBESAT XI-IV (CO-57)   
1 27848U 03031J   20181.28137564  .00000021  00000-0  29517-4 0  9995
2 27848  98.6875 189.3957 0010520  39.6440 320.5505 14.21830325881657
CUBESAT XI-V            
1 28895U 05043F   20182.33354808  .00000087  00000-0  25558-4 0  9995
2 28895  98.0115 318.3291 0015634 237.3802 122.5892 14.63779128782722
CUTE-1.7+APD II (CO-65) 
1 32785U 08021C   20182.44052143  .00000150  00000-0  21760-4 0  9998
2 32785  97.5729 169.8860 0014652  90.1637 270.1259 14.88482179659871
AAUSAT-II               
1 32788U 08021F   20182.30272875  .00000585  00000-0  58288-4 0  9999
2 32788  97.4907 186.2303 0012274  20.9814 339.1908 14.95080447661333
DELFI-C3 (DO-64)        
1 32789U 08021G   20181.67857140  .00000907  00000-0  63259-4 0  9995
2 32789  97.4170 224.0528 0010279 274.3717  85.6337 15.07761691663754
SEEDS II (CO-66)        
1 32791U 08021J   20182.55321320  .00000154  00000-0  20894-4 0  9994
2 32791  97.5405 176.1252 0014754  62.3505 297.9210 14.91063854660418
SWISSCUBE               
1 35932U 09051B   20182.47644156  .00000097  00000-0  32916-4 0  9998
2 35932  98.6106   5.1778 0008860  88.0087 272.2124 14.56402282571765
BEESAT-1                
1 35933U 09051C   20181.49633808  .00000072  00000-0  27224-4 0  9991
2 35933  98.6102   6.0316 0007009 101.2899 258.9086 14.56476666571735
ITUPSAT1                
1 35935U 09051E   20181.56690513  .00000065  00000-0  26107-4 0  9998
2 35935  98.6209   6.3029 0009325 100.8533 259.3714 14.55622142571466
TISAT 1                 
1 36799U 10035E   20181.51369579  .00000125  00000-0  18737-4 0  9998
2 36799  98.1952 352.2505 0010907 293.2092  66.7976 14.91371709540929
M-CUBED & EXP-1 PRIME   
1 37855U 11061F   20182.13043024  .00000715  00000-0  43021-4 0  9994
2 37855 101.7139 277.0701 0170790  37.3548 323.9397 15.06350237473585
AEROCUBE 4.5A           
1 38767U 12048K   20182.41354129  .00000055  00000-0  20010-4 0  9995
2 38767  64.6647 195.7934 0139671 131.8927 229.4200 14.92305248 43736
AEROCUBE 4.5B           
1 38768U 12048L   20182.39097905  .00000168  00000-0  27434-4 0  9991
2 38768  64.6658 164.1826 0128643 127.6581 233.6287 14.95977781 43816
STRAND-1                
1 39090U 13009E   20181.55927712  .00000018  00000-0  21332-4 0  9998
2 39090  98.4556  25.5224 0007986 245.9440 114.0910 14.35135196384445
SOMP                    
1 39134U 13015E   20182.39436176  .00000640  00000-0  37683-4 0  9993
2 39134  64.8620 235.8951 0032351 241.3508 118.4366 15.21090671398021
BEESAT-3                
1 39135U 13015F   20181.62587850  .00000576  00000-0  37536-4 0  9990
2 39135  64.8671 262.0990 0035676 244.3583 115.3856 15.18207067397453
BEESAT-2                
1 39136U 13015G   20182.46916949  .00000491  00000-0  34082-4 0  9998
2 39136  64.8705 264.3915 0031558 278.3010  81.4538 15.17592836397484
NEE-01 PEGASO           
1 39151U 13018B   20182.24540620  .00000069  00000-0  16101-4 0  9996
2 39151  97.9740 280.9727 0018255  61.7618 298.5434 14.80177047387576
ESTCUBE 1               
1 39161U 13021C   20182.46481591  .00000104  00000-0  24153-4 0  9992
2 39161  97.9639 265.2344 0008997 191.0749 169.0259 14.72327156383953
POPACS 1                
1 39268U 13055D   20182.29925979  .00004130  00000-0  11234-3 0  9999
2 39268  81.0022 282.5777 0616845 183.9913 175.6238 14.39354441351318
POPACS 2                
1 39269U 13055E   20182.35044476  .00000709  00000-0  20271-4 0  9991
2 39269  81.0149 320.8291 0676693 283.1646  69.4919 14.25496352349045
POPACS 3                
1 39270U 13055F   20181.47944566  .00001104  00000-0  33767-4 0  9998
2 39270  81.0159 343.5601 0709654 348.3882  10.1620 14.16920480347533
ZACUBE-1 (TSHEPISOSAT)  
1 39417U 13066B   20181.99690472  .00000130  00000-0  22712-4 0  9990
2 39417  97.5645 179.3223 0057472 235.9395 123.6355 14.81285031356899
WNISAT-1                
1 39423U 13066H   20182.33191976 -.00000003  00000-0  94294-5 0  9996
2 39423  97.8005 102.9387 0174293 215.1273 143.8322 14.53123478350299
TRITON-1                
1 39427U 13066M   20182.36078875  .00000221  00000-0  42930-4 0  9995
2 39427  97.7242 142.5667 0114847  37.0880 323.8194 14.68012403353752
GOMX-1                  
1 39430U 13066Q   20182.42086161  .00000108  00000-0  28271-4 0  9999
2 39430  97.7917 120.1668 0151580 143.2885 217.8815 14.59406658351690
CUBEBUG-2 (LO-74)       
1 39440U 13066AA  20181.69193770  .00000137  00000-0  26195-4 0  9998
2 39440  97.6311 163.5171 0078736 301.1402  58.2103 14.76021096355586
NEE-02 KRYSAOR          
1 39441U 13066AB  20182.45802204  .00000072  00000-0  17617-4 0  9990
2 39441  97.6386 161.7517 0080411 307.7333  51.6608 14.75024259355480
FUNCUBE-1 (AO-73)       
1 39444U 13066AE  20181.58238674  .00000190  00000-0  29623-4 0  9991
2 39444  97.5587 181.1683 0056665 229.2740 130.3545 14.82139753355758
UWE-3                   
1 39446U 13066AG  20181.52419589  .00000126  00000-0  23541-4 0  9995
2 39446  97.5983 170.5393 0068298 270.5105  88.8282 14.78554949354947
AEROCUBE 5A             
1 39465U 13072D   20182.03803627  .00001692  00000-0  16960-3 0  9995
2 39465 120.4924 208.7331 0255985 257.4577  99.7730 14.76505252 43229
AEROCUBE 5B             
1 39466U 13072E   20181.69431572  .00001841  00000-0  15598-3 0  9995
2 39466 120.4876 244.9258 0228355 266.4377  91.0539 14.86130669 43392
BRITE-CA1 (TORONTO)     
1 40020U 14033L   20182.44327477  .00000021  00000-0  11872-4 0  9994
2 40020  97.7307   9.9100 0088151  32.1037 328.5494 14.66649211322674
DUCHIFAT-1              
1 40021U 14033M   20182.36672225  .00000307  00000-0  36993-4 0  9998
2 40021  97.9428 113.6822 0011427 242.6948 117.3107 14.90919922327818
NANOSATC-BR1            
1 40024U 14033Q   20182.06107127  .00000158  00000-0  22324-4 0  9999
2 40024  97.9277 109.7149 0010666 248.7589 111.2490 14.90087056327635
QB50P1                  
1 40025U 14033R   20181.68410740  .00000167  00000-0  23669-4 0  9998
2 40025  97.9152 105.9925 0010928 258.4483 101.5507 14.89148030327426
QB50P2                  
1 40032U 14033Y   20182.34226897  .00000153  00000-0  22478-4 0  9990
2 40032  97.9038 104.0924 0010353 252.4366 107.5719 14.88673613327422
PERSEUS-M2              
1 40037U 14033AD  20182.32042126  .00000012  00000-0  76023-5 0  9994
2 40037  97.8885  98.5726 0012907 270.6308  89.3429 14.86547897327076
PERSEUS-M1              
1 40039U 14033AF  20181.99664645  .00000029  00000-0  96142-5 0  9996
2 40039  97.8850  97.0122 0012748 269.5727  90.4027 14.86168624326948
POLYITAN-1              
1 40042U 14033AJ  20182.35421069  .00000156  00000-0  22697-4 0  9996
2 40042  97.9237 107.2000 0013156 245.9889 113.9951 14.88895783327428
TIGRISAT                
1 40043U 14033AK  20182.31542705  .00000080  00000-0  19233-4 0  9992
2 40043  97.7086  37.9500 0058927 318.3164  41.3562 14.74385201324242
AEROCUBE 6A             
1 40045U 14033AM  20182.36658853  .00000122  00000-0  24818-4 0  9993
2 40045  97.7341  43.5454 0056561 309.5850  50.0372 14.75584511324258
AEROCUBE 6B             
1 40046U 14033AN  20181.56279872  .00000198  00000-0  35750-4 0  9995
2 40046  97.7250  42.0353 0055855 311.1949  48.4452 14.75575049324271
UKUBE-1                 
1 40074U 14037F   20182.51225767  .00000173  00000-0  27798-4 0  9996
2 40074  98.4552  11.6282 0005599  79.2179 280.9671 14.84278083323694
BRITE-PL2 (HEWELIUSZ)   
1 40119U 14049B   20182.12654265  .00000038  00000-0  10919-4 0  9992
2 40119  97.8953 274.2212 0018767  69.7523 290.5706 14.84512640317666
FIREBIRD 4              
1 40378U 15003C   20182.41175060  .00000816  00000-0  35518-4 0  9999
2 40378  99.0943 245.3673 0122655 270.6996  88.0181 15.20119316299283
GRIFEX                  
1 40379U 15003D   20182.41309142  .00000567  00000-0  28295-4 0  9997
2 40379  99.1011 237.2115 0131658 296.1761  62.5976 15.16448730298815
EXOCUBE (CP10)          
1 40380U 15003E   20181.17866521  .00000488  00000-0  26157-4 0  9997
2 40380  99.1081 231.3528 0136948 315.2554  43.7689 15.14400613298321
AEROCUBE 8A             
1 40659U 15025J   20181.57397130  .00009040  00000-0  99037-4 0  9999
2 40659  55.0156 236.8240 0103146 205.8414 153.7451 15.57863590 45444
AEROCUBE 8B             
1 40660U 15025K   20181.61318444  .00008916  00000-0  96748-4 0  9994
2 40660  55.0129 234.5434 0102143 207.9627 151.5901 15.58236477 45468
TIANWANG 1C (TW-1C)     
1 40926U 15051B   20182.39518854  .00017770  00000-0  17276-3 0  9997
2 40926  97.0832 234.2578 0006742  55.9727 316.3761 15.66324314269051
TIANWANG 1A (TW-1A)     
1 40928U 15051D   20182.58150248  .00002104  00000-0  50067-4 0  9990
2 40928  97.1083 210.0925 0011881 132.8478  22.2762 15.42672165267391
EXACTVIEW 9             
1 40936U 15052G   20181.32597563  .00000713  00000-0  10592-4 0  9999
2 40936   6.0026 255.6442 0009998  71.1078 289.0134 14.76576573256983
AEROCUBE 5C             
1 40965U 15058B   20181.50242360  .00000003  00000-0  20244-4 0  9996
2 40965  64.7789 107.4316 0168949  69.4170 292.4966 14.74529468 43086
AEROCUBE 7              
1 40966U 15058C   20182.29394997  .00000045  00000-0  25073-4 0  9999
2 40966  64.7790 103.4974 0167918  68.7936 293.1014 14.74830898 43200
ATHENOXAT 1             
1 41168U 15077C   20181.61874322  .00001345  00000-0  34415-4 0  9999
2 41168  14.9892 332.1608 0011427 297.7863  62.1300 15.14402192251194
GALASSIA                
1 41170U 15077E   20181.07208363  .00001333  00000-0  33321-4 0  9990
2 41170  14.9895 327.9807 0012699 316.8040  43.1285 15.14695985251189
VELOX-II                
1 41171U 15077F   20181.85179002  .00001142  00000-0  26781-4 0  9994
2 41171  14.9925   7.2007 0008836 223.1476 136.8152 15.11715970250901
